{
  "type": "FeatureCollection",
  "name": "countries_min_sample",
  "features": [
    {
      "type": "Feature",
      "properties": {
        "ADMIN": "United States of America",
        "ISO_A3": "USA",
        "NAME_EN": "United States of America"
      },
      "geometry": {
        "type": "MultiPolygon",
        "coordinates": [
          [[[-125.0, 24.0], [-66.0, 24.0], [-66.0, 49.0], [-125.0, 49.0], [-125.0, 24.0]]]
        ]
      }
    },
    {
      "type": "Feature",
      "properties": {
        "ADMIN": "Canada",
        "ISO_A3": "CAN",
        "NAME_EN": "Canada"
      },
      "geometry": {
        "type": "Polygon",
        "coordinates": [
          [[[-141.0, 49.0], [-52.0, 49.0], [-52.0, 83.0], [-141.0, 83.0], [-141.0, 49.0]]]
        ]
      }
    },
    {
      "type": "Feature",
      "properties": {
        "ADMIN": "Mexico",
        "ISO_A3": "MEX",
        "NAME_EN": "Mexico"
      },
      "geometry": {
        "type": "Polygon",
        "coordinates": [
          [[[-118.0, 14.0], [-86.0, 14.0], [-86.0, 33.0], [-118.0, 33.0], [-118.0, 14.0]]]
        ]
      }
    },
    {
      "type": "Feature",
      "properties": {
        "ADMIN": "Brazil",
        "ISO_A3": "BRA",
        "NAME_EN": "Brazil"
      },
      "geometry": {
        "type": "Polygon",
        "coordinates": [
          [[[-74.0, -34.0], [-34.0, -34.0], [-34.0, 6.0], [-74.0, 6.0], [-74.0, -34.0]]]
        ]
      }
    },
    {
      "type": "Feature",
      "properties": {
        "ADMIN": "United Kingdom",
        "ISO_A3": "GBR",
        "NAME_EN": "United Kingdom"
      },
      "geometry": {
        "type": "Polygon",
        "coordinates": [
          [[[-8.0, 49.8], [2.0, 49.8], [2.0, 59.0], [-8.0, 59.0], [-8.0, 49.8]]]
        ]
      }
    },
    {
      "type": "Feature",
      "properties": {
        "ADMIN": "France",
        "ISO_A3": "FRA",
        "NAME_EN": "France"
      },
      "geometry": {
        "type": "Polygon",
        "coordinates": [
          [[[-5.5, 41.0], [8.5, 41.0], [8.5, 51.5], [-5.5, 51.5], [-5.5, 41.0]]]
        ]
      }
    }
  ]
}
